start=new Date('2021-10-26T00:00:00.000Z').valueOf();
sats=[{"ARG_OF_PERICENTER":"63.5198","MEAN_MOTION_DOT":"0.00001830","RCS_SIZE":"LARGE","MEAN_ELEMENT_THEORY":"SGP4","ELEMENT_SET_NO":"999","DECAY_DATE":null,"SITE":"AFETR","EPHEMERIS_TYPE":"0","APOAPSIS":"548.336","FILE":"3183599","OBJECT_NAME":"STARLINK-2637","SEMIMAJOR_AXIS":"6925.304","TLE_LINE2":"2 48356  53.0658 326.9222 0001685  63.5198 296.5964 15.06414548 27034","COUNTRY_CODE":"US","ECCENTRICITY":"0.00016850","PERIOD":"95.591","MEAN_MOTION":"15.06414548","GP_ID":"188148818","BSTAR":"0.00014164000000","REV_AT_EPOCH":"2703","MEAN_ANOMALY":"296.5964","OBJECT_TYPE":"PAYLOAD","NORAD_CAT_ID":"48356","INCLINATION":"53.0658","TLE_LINE1":"1 48356U 21038D   21298.54994341  .00001830  00000-0  14164-3 0  9992","CLASSIFICATION_TYPE":"U","TIME_SYSTEM":"UTC","LAUNCH_DATE":"2021-05-04","MEAN_MOTION_DDOT":"0.0000000000000","REF_FRAME":"TEME","PERIAPSIS":"546.002","CENTER_NAME":"EARTH","RA_OF_ASC_NODE":"326.9222","OBJECT_ID":"2021-038D","EPOCH":"2021-10-25T13:11:55.110624"},{"OBJECT_NAME":"STARLINK-2636","SEMIMAJOR_AXIS":"6925.351","TLE_LINE2":"2 48357  53.0560 327.8712 0001193  79.9072 280.2051 15.06399135 27016","COUNTRY_CODE":"US","FILE":"3183269","EPHEMERIS_TYPE":"0","APOAPSIS":"548.042","DECAY_DATE":null,"SITE":"AFETR","ELEMENT_SET_NO":"999","ARG_OF_PERICENTER":"79.9072","RCS_SIZE":"LARGE","MEAN_MOTION_DOT":"-0.00000196","MEAN_ELEMENT_THEORY":"SGP4","EPOCH":"2021-10-25T08:19:59.785536","OBJECT_ID":"2021-038E","RA_OF_ASC_NODE":"327.8712","CENTER_NAME":"EARTH","CLASSIFICATION_TYPE":"U","MEAN_MOTION_DDOT":"0.0000000000000","LAUNCH_DATE":"2021-05-04","TIME_SYSTEM":"UTC","REF_FRAME":"TEME","PERIAPSIS":"546.390","NORAD_CAT_ID":"48357","OBJECT_TYPE":"PAYLOAD","MEAN_ANOMALY":"280.2051","INCLINATION":"53.0560","TLE_LINE1":"1 48357U 21038E   21298.34721974 -.00000196  00000-0  57235-5 0  9994","GP_ID":"188118284","BSTAR":"0.00000572350000","REV_AT_EPOCH":"2701","ECCENTRICITY":"0.00011930","PERIOD":"95.592","MEAN_MOTION":"15.06399135"},{"APOAPSIS":"548.102","EPHEMERIS_TYPE":"0","SITE":"AFETR","DECAY_DATE":null,"TLE_LINE2":"2 48358  53.0528 327.5998 0001285  70.6203 289.4925 15.06400420 27011","COUNTRY_CODE":"US","OBJECT_NAME":"STARLINK-2624","SEMIMAJOR_AXIS":"6925.347","FILE":"3183761","ELEMENT_SET_NO":"999","RCS_SIZE":"LARGE","MEAN_MOTION_DOT":"-0.00000068","MEAN_ELEMENT_THEORY":"SGP4","ARG_OF_PERICENTER":"70.6203","RA_OF_ASC_NODE":"327.5998","OBJECT_ID":"2021-038F","CENTER_NAME":"EARTH","EPOCH":"2021-10-25T09:50:13.570656","REV_AT_EPOCH":"2701","GP_ID":"188152864","BSTAR":"0.00001435600000","PERIOD":"95.592","MEAN_MOTION":"15.06400420","ECCENTRICITY":"0.00012850","REF_FRAME":"TEME","PERIAPSIS":"546.322","CLASSIFICATION_TYPE":"U","TIME_SYSTEM":"UTC","LAUNCH_DATE":"2021-05-04","MEAN_MOTION_DDOT":"0.0000000000000","INCLINATION":"53.0528","TLE_LINE1":"1 48358U 21038F   21298.40987929 -.00000068  00000-0  14356-4 0  9990","OBJECT_TYPE":"PAYLOAD","MEAN_ANOMALY":"289.4925","NORAD_CAT_ID":"48358"},{"OBJECT_TYPE":"PAYLOAD","MEAN_ANOMALY":"280.6638","NORAD_CAT_ID":"48359","INCLINATION":"53.0563","TLE_LINE1":"1 48359U 21038G   21298.53888807 -.00000108  00000-0  11628-4 0  9994","CLASSIFICATION_TYPE":"U","MEAN_MOTION_DDOT":"0.0000000000000","LAUNCH_DATE":"2021-05-04","TIME_SYSTEM":"UTC","REF_FRAME":"TEME","PERIAPSIS":"546.293","ECCENTRICITY":"0.00013590","MEAN_MOTION":"15.06393335","PERIOD":"95.593","GP_ID":"188148884","BSTAR":"0.00001162800000","REV_AT_EPOCH":"2768","EPOCH":"2021-10-25T12:55:59.929248","CENTER_NAME":"EARTH","OBJECT_ID":"2021-038G","RA_OF_ASC_NODE":"327.0099","ARG_OF_PERICENTER":"79.4504","MEAN_MOTION_DOT":"-0.00000108","RCS_SIZE":"LARGE","MEAN_ELEMENT_THEORY":"SGP4","ELEMENT_SET_NO":"999","FILE":"3183607","OBJECT_NAME":"STARLINK-2628","SEMIMAJOR_AXIS":"6925.369","TLE_LINE2":"2 48359  53.0563 327.0099 0001359  79.4504 280.6638 15.06393335 27684","COUNTRY_CODE":"US","DECAY_DATE":null,"SITE":"AFETR","APOAPSIS":"548.175","EPHEMERIS_TYPE":"0"},{"RA_OF_ASC_NODE":"328.2112","OBJECT_ID":"2021-038H","CENTER_NAME":"EARTH","EPOCH":"2021-10-25T06:28:32.592288","BSTAR":"0.00013640000000","GP_ID":"188144160","REV_AT_EPOCH":"2640","ECCENTRICITY":"0.00011970","PERIOD":"95.592","MEAN_MOTION":"15.06404334","TIME_SYSTEM":"UTC","LAUNCH_DATE":"2021-05-04","MEAN_MOTION_DDOT":"0.0000000000000","CLASSIFICATION_TYPE":"U","PERIAPSIS":"546.371","REF_FRAME":"TEME","NORAD_CAT_ID":"48360","OBJECT_TYPE":"PAYLOAD","MEAN_ANOMALY":"296.7016","TLE_LINE1":"1 48360U 21038H   21298.26982167  .00001751  00000-0  13640-3 0  9999","INCLINATION":"53.0555","APOAPSIS":"548.029","EPHEMERIS_TYPE":"0","DECAY_DATE":null,"SITE":"AFETR","SEMIMAJOR_AXIS":"6925.335","OBJECT_NAME":"STARLINK-2622","COUNTRY_CODE":"US","TLE_LINE2":"2 48360  53.0555 328.2112 0001197  63.4096 296.7016 15.06404334 26404","FILE":"3183453","ELEMENT_SET_NO":"999","ARG_OF_PERICENTER":"63.4096","RCS_SIZE":"LARGE","MEAN_ELEMENT_THEORY":"SGP4","MEAN_MOTION_DOT":"0.00001751"},{"INCLINATION":"53.0554","TLE_LINE1":"1 48361U 21038J   21298.26612272 -.00000315  00000-0 -22290-5 0  9997","MEAN_ANOMALY":"274.6777","OBJECT_TYPE":"PAYLOAD","NORAD_CAT_ID":"48361","REF_FRAME":"TEME","PERIAPSIS":"546.336","CLASSIFICATION_TYPE":"U","LAUNCH_DATE":"2021-05-04","MEAN_MOTION_DDOT":"0.0000000000000","TIME_SYSTEM":"UTC","PERIOD":"95.592","MEAN_MOTION":"15.06398913","ECCENTRICITY":"0.00012720","REV_AT_EPOCH":"2640","GP_ID":"188144912","BSTAR":"-0.00000222900000","EPOCH":"2021-10-25T06:23:13.003008","CENTER_NAME":"EARTH","OBJECT_ID":"2021-038J","RA_OF_ASC_NODE":"328.3140","MEAN_MOTION_DOT":"-0.00000315","RCS_SIZE":"LARGE","MEAN_ELEMENT_THEORY":"SGP4","ARG_OF_PERICENTER":"85.4358","ELEMENT_SET_NO":"999","FILE":"3183453","TLE_LINE2":"2 48361  53.0554 328.3140 0001272  85.4358 274.6777 15.06398913 26409","COUNTRY_CODE":"US","OBJECT_NAME":"STARLINK-2591","SEMIMAJOR_AXIS":"6925.352","SITE":"AFETR","DECAY_DATE":null,"EPHEMERIS_TYPE":"0","APOAPSIS":"548.098"},{"ARG_OF_PERICENTER":"72.5115","RCS_SIZE":"LARGE","MEAN_MOTION_DOT":"0.00001804","MEAN_ELEMENT_THEORY":"SGP4","ELEMENT_SET_NO":"999","DECAY_DATE":null,"SITE":"AFETR","APOAPSIS":"552.890","EPHEMERIS_TYPE":"0","FILE":"3183612","SEMIMAJOR_AXIS":"6930.340","OBJECT_NAME":"STARLINK-2578","COUNTRY_CODE":"US","TLE_LINE2":"2 48362  53.0552 327.1332 0000988  72.5115 287.5981 15.04772763 27036","ECCENTRICITY":"0.00009880","PERIOD":"95.696","MEAN_MOTION":"15.04772763","BSTAR":"0.00014593000000","GP_ID":"188148957","REV_AT_EPOCH":"2703","OBJECT_TYPE":"PAYLOAD","NORAD_CAT_ID":"48362","MEAN_ANOMALY":"287.5981","TLE_LINE1":"1 48362U 21038K   21298.48365263  .00001804  00000-0  14593-3 0  9994","INCLINATION":"53.0552","LAUNCH_DATE":"2021-05-04","TIME_SYSTEM":"UTC","MEAN_MOTION_DDOT":"0.0000000000000","CLASSIFICATION_TYPE":"U","PERIAPSIS":"551.521","REF_FRAME":"TEME","CENTER_NAME":"EARTH","RA_OF_ASC_NODE":"327.1332","OBJECT_ID":"2021-038K","EPOCH":"2021-10-25T11:36:27.587232"},{"ELEMENT_SET_NO":"999","ARG_OF_PERICENTER":"82.6163","MEAN_ELEMENT_THEORY":"SGP4","RCS_SIZE":"LARGE","MEAN_MOTION_DOT":"0.00000894","SEMIMAJOR_AXIS":"6925.364","OBJECT_NAME":"STARLINK-2626","COUNTRY_CODE":"US","TLE_LINE2":"2 48363  53.0560 322.4417 0001184  82.6163 277.4960 15.06395027 27099","FILE":"3183623","APOAPSIS":"548.049","EPHEMERIS_TYPE":"0","DECAY_DATE":null,"SITE":"AFETR","TIME_SYSTEM":"UTC","LAUNCH_DATE":"2021-05-04","MEAN_MOTION_DDOT":"0.0000000000000","CLASSIFICATION_TYPE":"U","PERIAPSIS":"546.409","REF_FRAME":"TEME","OBJECT_TYPE":"PAYLOAD","MEAN_ANOMALY":"277.4960","NORAD_CAT_ID":"48363","TLE_LINE1":"1 48363U 21038L   21298.44169249  .00000894  00000-0  78931-4 0  9992","INCLINATION":"53.0560","BSTAR":"0.00007893100000","GP_ID":"188149215","REV_AT_EPOCH":"2709","ECCENTRICITY":"0.00011840","MEAN_MOTION":"15.06395027","PERIOD":"95.592","EPOCH":"2021-10-25T10:36:02.231136","OBJECT_ID":"2021-038L","RA_OF_ASC_NODE":"322.4417","CENTER_NAME":"EARTH"},{"ELEMENT_SET_NO":"999","ARG_OF_PERICENTER":"74.6143","RCS_SIZE":"LARGE","MEAN_MOTION_DOT":"-0.00000343","MEAN_ELEMENT_THEORY":"SGP4","SEMIMAJOR_AXIS":"6925.354","OBJECT_NAME":"STARLINK-2611","COUNTRY_CODE":"US","TLE_LINE2":"2 48364  53.0567 323.3574 0001174  74.6143 285.4976 15.06398203 26475","FILE":"3183453","APOAPSIS":"548.032","EPHEMERIS_TYPE":"0","DECAY_DATE":null,"SITE":"AFETR","MEAN_MOTION_DDOT":"0.0000000000000","LAUNCH_DATE":"2021-05-04","TIME_SYSTEM":"UTC","CLASSIFICATION_TYPE":"U","PERIAPSIS":"546.406","REF_FRAME":"TEME","OBJECT_TYPE":"PAYLOAD","NORAD_CAT_ID":"48364","MEAN_ANOMALY":"285.4976","TLE_LINE1":"1 48364U 21038M   21298.23799888 -.00000343  00000-0 -41065-5 0  9998","INCLINATION":"53.0567","BSTAR":"-0.00000410650000","GP_ID":"188143661","REV_AT_EPOCH":"2647","ECCENTRICITY":"0.00011740","MEAN_MOTION":"15.06398203","PERIOD":"95.592","EPOCH":"2021-10-25T05:42:43.103232","OBJECT_ID":"2021-038M","RA_OF_ASC_NODE":"323.3574","CENTER_NAME":"EARTH"},{"DECAY_DATE":null,"SITE":"AFETR","EPHEMERIS_TYPE":"0","APOAPSIS":"548.103","FILE":"3183623","OBJECT_NAME":"STARLINK-2608","SEMIMAJOR_AXIS":"6925.325","TLE_LINE2":"2 48365  53.0568 322.2655 0001318  90.0786 270.0354 15.06407555 27102","COUNTRY_CODE":"US","ARG_OF_PERICENTER":"90.0786","MEAN_MOTION_DOT":"0.00001795","RCS_SIZE":"LARGE","MEAN_ELEMENT_THEORY":"SGP4","ELEMENT_SET_NO":"999","CENTER_NAME":"EARTH","RA_OF_ASC_NODE":"322.2655","OBJECT_ID":"2021-038N","EPOCH":"2021-10-25T11:34:24.038688","ECCENTRICITY":"0.00013180","PERIOD":"95.592","MEAN_MOTION":"15.06407555","GP_ID":"188149707","BSTAR":"0.00013937000000","REV_AT_EPOCH":"2710","MEAN_ANOMALY":"270.0354","OBJECT_TYPE":"PAYLOAD","NORAD_CAT_ID":"48365","INCLINATION":"53.0568","TLE_LINE1":"1 48365U 21038N   21298.48222267  .00001795  00000-0  13937-3 0  9993","CLASSIFICATION_TYPE":"U","MEAN_MOTION_DDOT":"0.0000000000000","LAUNCH_DATE":"2021-05-04","TIME_SYSTEM":"UTC","REF_FRAME":"TEME","PERIAPSIS":"546.278"}];
